0 FENGYUN 1C DEB
1 31007U 99025BCZ 13281.51383521  .00001648  00000-0  69288-3 0  8713
2 31007 098.1013 110.6601 0115549 036.1568 018.2822 14.23452480343493
0 FENGYUN 1C DEB
1 31007U 99025BCZ 13283.84768694  .00001737  00000-0  72935-3 0  8722
2 31007 098.1008 112.8109 0115463 029.3068 097.9472 14.23466888343838
0 FENGYUN 1C DEB
1 31007U 99025BCZ 13286.49942428  .00001704  00000-0  71598-3 0  8734
2 31007 098.1002 115.2545 0115405 021.5240 006.7051 14.23473887344205
0 FENGYUN 1C DEB
1 31007U 99025BCZ 13288.83804834  .00002260  00000-0  94421-3 0  8741
2 31007 098.1003 117.4098 0115290 014.6344 111.0281 14.23485841344548
0 FENGYUN 1C DEB
1 31007U 99025BCZ 13291.02257881  .00002374  00000-0  99121-3 0  8759
2 31007 098.0995 119.4217 0115196 008.2019 145.7816 14.23493379344852
0 FENGYUN 1C DEB
1 31007U 99025BCZ 13293.46418536  .00002575  00000-0  10733-2 0  8760
2 31007 098.0997 121.6716 0115237 001.0237 058.0069 14.23503182345190
0 FENGYUN 1C DEB
1 31007U 99025BCZ 13295.50141170  .00002950  00000-0  12273-2 0  8773
2 31007 098.0998 123.5490 0115176 355.0341 058.0200 14.23511675345486
